IRIDIUM 100
1 42956C 17061B   24018.06909722 -.00002799  00000+0 -10008-2 0   182
2 42956  86.3962  33.4118 0002243  90.1990 326.5178 14.34218964    16
